{
  "type": "FeatureCollection",
  "features": [
    {
      "type": "Feature",
      "properties": {
        "norad_id": 66609,
        "name": "STARLINK-36034",
        "group": "last-30-days",
        "lat": -12.683566770896974,
        "lon": -21.36563682869989,
        "alt_km": 414.9309064254603,
        "timestamp": "2025-12-20T22:39:09.405860+00:00",
        "meta_object_name": "STARLINK-36034",
        "meta_object_id": "2025-270X",
        "meta_epoch": "2025-12-20T10:58:45.230880",
        "meta_mean_motion": 15.50720064,
        "meta_eccentricity": 0.00016802,
        "meta_inclination": 42.9983,
        "meta_ra_of_asc_node": 147.5039,
        "meta_arg_of_pericenter": 247.2,
        "meta_mean_anomaly": 112.8683,
        "meta_ephemeris_type": 0,
        "meta_classification_type": "U",
        "meta_norad_cat_id": 66609,
        "meta_element_set_no": 999,
        "meta_rev_at_epoch": 538,
        "meta_bstar": 0.001488592,
        "meta_mean_motion_dot": 0.00088424,
        "meta_mean_motion_ddot": 0,
        "tle_line1": "1 66609U 25270X   25354.45746795  .00088424  00000+0  14886-2 0  9993",
        "tle_line2": "2 66609  42.9983 147.5039 0001680 247.2000 112.8683 15.50720064  5388"
      },
      "geometry": {
        "type": "Point",
        "coordinates": [
          -21.36563682869989,
          -12.683566770896974
        ]
      }
    },
    {
      "type": "Feature",
      "properties": {
        "norad_id": 66610,
        "name": "STARLINK-35680",
        "group": "last-30-days",
        "lat": 27.917401232178157,
        "lon": -69.84419882991531,
        "alt_km": 440.88071714522357,
        "timestamp": "2025-12-20T22:39:09.405869+00:00",
        "meta_object_name": "STARLINK-35680",
        "meta_object_id": "2025-270Y",
        "meta_epoch": "2025-12-20T14:00:03.000384",
        "meta_mean_motion": 15.40670406,
        "meta_eccentricity": 0.00020381,
        "meta_inclination": 42.9994,
        "meta_ra_of_asc_node": 146.8878,
        "meta_arg_of_pericenter": 284.1662,
        "meta_mean_anomaly": 10.5997,
        "meta_ephemeris_type": 0,
        "meta_classification_type": "U",
        "meta_norad_cat_id": 66610,
        "meta_element_set_no": 999,
        "meta_rev_at_epoch": 576,
        "meta_bstar": 0.00020764305,
        "meta_mean_motion_dot": 8.371e-05,
        "meta_mean_motion_ddot": 0,
        "tle_line1": "1 66610U 25270Y   25354.58336806  .00008371  00000+0  20764-3 0  9993",
        "tle_line2": "2 66610  42.9994 146.8878 0002038 284.1662  10.5997 15.40670406  5764"
      },
      "geometry": {
        "type": "Point",
        "coordinates": [
          -69.84419882991531,
          27.917401232178157
        ]
      }
    },
    {
      "type": "Feature",
      "properties": {
        "norad_id": 66611,
        "name": "STARLINK-35583",
        "group": "last-30-days",
        "lat": 12.39261663984013,
        "lon": -48.88931342927155,
        "alt_km": 442.62452299361667,
        "timestamp": "2025-12-20T22:39:09.405878+00:00",
        "meta_object_name": "STARLINK-35583",
        "meta_object_id": "2025-270Z",
        "meta_epoch": "2025-12-20T14:00:03.000384",
        "meta_mean_motion": 15.42036633,
        "meta_eccentricity": 9.91e-05,
        "meta_inclination": 42.9995,
        "meta_ra_of_asc_node": 146.8294,
        "meta_arg_of_pericenter": 279.423,
        "meta_mean_anomaly": 39.4987,
        "meta_ephemeris_type": 0,
        "meta_classification_type": "U",
        "meta_norad_cat_id": 66611,
        "meta_element_set_no": 999,
        "meta_rev_at_epoch": 576,
        "meta_bstar": -0.04590531,
        "meta_mean_motion_dot": -0.01806992,
        "meta_mean_motion_ddot": 0,
        "tle_line1": "1 66611U 25270Z   25354.58336806 -.01806992  00000+0 -45905-1 0  9994",
        "tle_line2": "2 66611  42.9995 146.8294 0000991 279.4230  39.4987 15.42036633  5761"
      },
      "geometry": {
        "type": "Point",
        "coordinates": [
          -48.88931342927155,
          12.39261663984013
        ]
      }
    },
    {
      "type": "Feature",
      "properties": {
        "norad_id": 66612,
        "name": "STARLINK-36039",
        "group": "last-30-days",
        "lat": -42.9151227345609,
        "lon": 59.21420759593493,
        "alt_km": 446.4758470990646,
        "timestamp": "2025-12-20T22:39:09.405887+00:00",
        "meta_object_name": "STARLINK-36039",
        "meta_object_id": "2025-270AA",
        "meta_epoch": "2025-12-20T10:34:58.712448",
        "meta_mean_motion": 15.40726185,
        "meta_eccentricity": 0.00016577,
        "meta_inclination": 43.0005,
        "meta_ra_of_asc_node": 148.2468,
        "meta_arg_of_pericenter": 221.4551,
        "meta_mean_anomaly": 138.618,
        "meta_ephemeris_type": 0,
        "meta_classification_type": "U",
        "meta_norad_cat_id": 66612,
        "meta_element_set_no": 999,
        "meta_rev_at_epoch": 553,
        "meta_bstar": 0.00084609538,
        "meta_mean_motion_dot": 0.00035234,
        "meta_mean_motion_ddot": 0,
        "tle_line1": "1 66612U 25270AA  25354.44095732  .00035234  00000+0  84610-3 0  9998",
        "tle_line2": "2 66612  43.0005 148.2468 0001657 221.4551 138.6180 15.40726185  5536"
      },
      "geometry": {
        "type": "Point",
        "coordinates": [
          59.21420759593493,
          -42.9151227345609
        ]
      }
    },
    {
      "type": "Feature",
      "properties": {
        "norad_id": 66613,
        "name": "STARLINK-36037",
        "group": "last-30-days",
        "lat": -37.169546577049886,
        "lon": 90.83219079250435,
        "alt_km": 445.7425771389626,
        "timestamp": "2025-12-20T22:39:09.405898+00:00",
        "meta_object_name": "STARLINK-36037",
        "meta_object_id": "2025-270AB",
        "meta_epoch": "2025-12-20T12:01:52.945536",
        "meta_mean_motion": 15.40708676,
        "meta_eccentricity": 0.00019904,
        "meta_inclination": 42.9992,
        "meta_ra_of_asc_node": 147.8396,
        "meta_arg_of_pericenter": 282.6285,
        "meta_mean_anomaly": 77.4349,
        "meta_ephemeris_type": 0,
        "meta_classification_type": "U",
        "meta_norad_cat_id": 66613,
        "meta_element_set_no": 999,
        "meta_rev_at_epoch": 554,
        "meta_bstar": 0.00058512423,
        "meta_mean_motion_dot": 0.00024223,
        "meta_mean_motion_ddot": 0,
        "tle_line1": "1 66613U 25270AB  25354.50130724  .00024223  00000+0  58512-3 0  9995",
        "tle_line2": "2 66613  42.9992 147.8396 0001990 282.6285  77.4349 15.40708676  5541"
      },
      "geometry": {
        "type": "Point",
        "coordinates": [
          90.83219079250435,
          -37.169546577049886
        ]
      }
    },
    {
      "type": "Feature",
      "properties": {
        "norad_id": 66614,
        "name": "STARLINK-36040",
        "group": "last-30-days",
        "lat": 31.23341592169825,
        "lon": -174.38140886994535,
        "alt_km": 439.8683572914324,
        "timestamp": "2025-12-20T22:39:09.405907+00:00",
        "meta_object_name": "STARLINK-36040",
        "meta_object_id": "2025-270AC",
        "meta_epoch": "2025-12-20T14:00:03.000384",
        "meta_mean_motion": 15.40704019,
        "meta_eccentricity": 0.00017514,
        "meta_inclination": 42.9999,
        "meta_ra_of_asc_node": 147.0969,
        "meta_arg_of_pericenter": 274.8639,
        "meta_mean_anomaly": 292.8402,
        "meta_ephemeris_type": 0,
        "meta_classification_type": "U",
        "meta_norad_cat_id": 66614,
        "meta_element_set_no": 999,
        "meta_rev_at_epoch": 550,
        "meta_bstar": -3.5220946e-05,
        "meta_mean_motion_dot": -1.775e-05,
        "meta_mean_motion_ddot": 0,
        "tle_line1": "1 66614U 25270AC  25354.58336806 -.00001775  00000+0 -35221-4 0  9995",
        "tle_line2": "2 66614  42.9999 147.0969 0001751 274.8639 292.8402 15.40704019  5504"
      },
      "geometry": {
        "type": "Point",
        "coordinates": [
          -174.38140886994535,
          31.23341592169825
        ]
      }
    },
    {
      "type": "Feature",
      "properties": {
        "norad_id": 66615,
        "name": "STARLINK-35988",
        "group": "last-30-days",
        "lat": -16.782132816284257,
        "lon": 126.30923785589329,
        "alt_km": 445.73706972167656,
        "timestamp": "2025-12-20T22:39:09.405916+00:00",
        "meta_object_name": "STARLINK-35988",
        "meta_object_id": "2025-270AD",
        "meta_epoch": "2025-12-20T11:52:11.756928",
        "meta_mean_motion": 15.40711585,
        "meta_eccentricity": 0.0001105,
        "meta_inclination": 42.9968,
        "meta_ra_of_asc_node": 147.784,
        "meta_arg_of_pericenter": 231.0551,
        "meta_mean_anomaly": 129.0208,
        "meta_ephemeris_type": 0,
        "meta_classification_type": "U",
        "meta_norad_cat_id": 66615,
        "meta_element_set_no": 999,
        "meta_rev_at_epoch": 538,
        "meta_bstar": 0.00068763833,
        "meta_mean_motion_dot": 0.00028539,
        "meta_mean_motion_ddot": 0,
        "tle_line1": "1 66615U 25270AD  25354.49458052  .00028539  00000+0  68764-3 0  9996",
        "tle_line2": "2 66615  42.9968 147.7840 0001105 231.0551 129.0208 15.40711585  5384"
      },
      "geometry": {
        "type": "Point",
        "coordinates": [
          126.30923785589329,
          -16.782132816284257
        ]
      }
    }
  ]
}